     3.04           N: GNSS NAV DATA    S: SBAS Payload     RINEX VERSION / TYPE
cnvtToRINEX 3.14.0  convertToRINEX OPR  20220915 175613 UTC PGM / RUN BY / DATE 
----------------------------------------------------------- COMMENT             
SBUT   -0.931322574615D-09 0.000000000000D+00               CORR TO SYSTEM TIME 
    18                                                      LEAP SECONDS        
                                                            END OF HEADER       
S36 2022 08 11 11 59 44 0.000000000000D+00 0.000000000000D+00 0.388784000000D+06
     0.420036880000D+05 0.000000000000D+00 0.000000000000D+00 0.000000000000D+00
     0.367484696000D+04 0.000000000000D+00 0.000000000000D+00 0.150000000000D+02
     0.000000000000D+00 0.000000000000D+00 0.000000000000D+00 0.000000000000D+00
S25 2022 08 11 23 59 44 0.000000000000D+00 0.000000000000D+00 0.431984000000D+06
     0.405307697600D+05 0.000000000000D+00 0.000000000000D+00 0.000000000000D+00
    -0.116220112000D+05 0.000000000000D+00 0.000000000000D+00 0.150000000000D+02
     0.000000000000D+00 0.000000000000D+00 0.000000000000D+00 0.000000000000D+00
S36 2022 08 11 12 02 24 0.000000000000D+00 0.000000000000D+00 0.388944000000D+06
     0.420036880000D+05 0.000000000000D+00 0.000000000000D+00 0.000000000000D+00
     0.367484696000D+04 0.000000000000D+00 0.000000000000D+00 0.150000000000D+02
     0.000000000000D+00 0.000000000000D+00 0.000000000000D+00 0.000000000000D+00
